[{"OBJECT_NAME":"KUIPER-00137","OBJECT_ID":"2025-228S","EPOCH":"2026-03-04T00:57:13.354560","MEAN_MOTION":14.8310941,"ECCENTRICITY":7.371e-5,"INCLINATION":51.9034,"RA_OF_ASC_NODE":10.5966,"ARG_OF_PERICENTER":94.2766,"MEAN_ANOMALY":265.8282,"EPHEMERIS_TYPE":0,"CLASSIFICATION_TYPE":"U","NORAD_CAT_ID":65963,"ELEMENT_SET_NO":999,"REV_AT_EPOCH":2260,"BSTAR":0.0010436554,"MEAN_MOTION_DOT":8.369e-5,"MEAN_MOTION_DDOT":0},{"OBJECT_NAME":"KUIPER-00138","OBJECT_ID":"2025-228T","EPOCH":"2026-03-05T02:07:13.662912","MEAN_MOTION":14.79924547,"ECCENTRICITY":7.64e-5,"INCLINATION":51.9023,"RA_OF_ASC_NODE":3.4396,"ARG_OF_PERICENTER":314.7167,"MEAN_ANOMALY":45.3733,"EPHEMERIS_TYPE":0,"CLASSIFICATION_TYPE":"U","NORAD_CAT_ID":65964,"ELEMENT_SET_NO":999,"REV_AT_EPOCH":2279,"BSTAR":-0.00055525,"MEAN_MOTION_DOT":-4.45e-5,"MEAN_MOTION_DDOT":0},{"OBJECT_NAME":"KUIPER-00140","OBJECT_ID":"2025-228U","EPOCH":"2026-03-05T02:03:22.976640","MEAN_MOTION":14.79931044,"ECCENTRICITY":3.83e-5,"INCLINATION":51.9009,"RA_OF_ASC_NODE":6.0343,"ARG_OF_PERICENTER":115.2046,"MEAN_ANOMALY":244.8956,"EPHEMERIS_TYPE":0,"CLASSIFICATION_TYPE":"U","NORAD_CAT_ID":65965,"ELEMENT_SET_NO":999,"REV_AT_EPOCH":2275,"BSTAR":0.00084751,"MEAN_MOTION_DOT":6.245e-5,"MEAN_MOTION_DDOT":0},{"OBJECT_NAME":"KUIPER-00141","OBJECT_ID":"2025-228V","EPOCH":"2026-03-04T03:30:02.662560","MEAN_MOTION":14.79990573,"ECCENTRICITY":0.00010625,"INCLINATION":51.9037,"RA_OF_ASC_NODE":5.1978,"ARG_OF_PERICENTER":142.8483,"MEAN_ANOMALY":217.2553,"EPHEMERIS_TYPE":0,"CLASSIFICATION_TYPE":"U","NORAD_CAT_ID":65966,"ELEMENT_SET_NO":999,"REV_AT_EPOCH":2268,"BSTAR":0.0071367425,"MEAN_MOTION_DOT":0.00054704,"MEAN_MOTION_DDOT":0},{"OBJECT_NAME":"KUIPER-00146","OBJECT_ID":"2025-228W","EPOCH":"2026-03-05T02:14:45.089088","MEAN_MOTION":14.76463541,"ECCENTRICITY":0.0001135,"INCLINATION":51.904,"RA_OF_ASC_NODE":3.2247,"ARG_OF_PERICENTER":104.0645,"MEAN_ANOMALY":256.0442,"EPHEMERIS_TYPE":0,"CLASSIFICATION_TYPE":"U","NORAD_CAT_ID":65967,"ELEMENT_SET_NO":999,"REV_AT_EPOCH":2279,"BSTAR":0.00060692,"MEAN_MOTION_DOT":4.051e-5,"MEAN_MOTION_DDOT":0},{"OBJECT_NAME":"KUIPER-00149","OBJECT_ID":"2025-228X","EPOCH":"2026-03-04T05:10:53.795424","MEAN_MOTION":14.79953971,"ECCENTRICITY":0.00016822,"INCLINATION":51.903,"RA_OF_ASC_NODE":2.3072,"ARG_OF_PERICENTER":60.7673,"MEAN_ANOMALY":299.3457,"EPHEMERIS_TYPE":0,"CLASSIFICATION_TYPE":"U","NORAD_CAT_ID":65968,"ELEMENT_SET_NO":999,"REV_AT_EPOCH":2273,"BSTAR":0.0011721562,"MEAN_MOTION_DOT":8.73e-5,"MEAN_MOTION_DDOT":0},{"OBJECT_NAME":"KUIPER-00154","OBJECT_ID":"2025-228Y","EPOCH":"2026-03-04T06:03:19.143360","MEAN_MOTION":14.79940082,"ECCENTRICITY":8.636e-5,"INCLINATION":51.9039,"RA_OF_ASC_NODE":359.6522,"ARG_OF_PERICENTER":170.2234,"MEAN_ANOMALY":189.8746,"EPHEMERIS_TYPE":0,"CLASSIFICATION_TYPE":"U","NORAD_CAT_ID":65969,"ELEMENT_SET_NO":999,"REV_AT_EPOCH":2277,"BSTAR":0.00024975827,"MEAN_MOTION_DOT":1.684e-5,"MEAN_MOTION_DDOT":0},{"OBJECT_NAME":"KUIPER-00157","OBJECT_ID":"2025-228Z","EPOCH":"2026-03-05T03:03:35.582688","MEAN_MOTION":14.7995961,"ECCENTRICITY":2.83e-5,"INCLINATION":51.9061,"RA_OF_ASC_NODE":358.3828,"ARG_OF_PERICENTER":101.5879,"MEAN_ANOMALY":258.5116,"EPHEMERIS_TYPE":0,"CLASSIFICATION_TYPE":"U","NORAD_CAT_ID":65970,"ELEMENT_SET_NO":999,"REV_AT_EPOCH":2286,"BSTAR":0.00024584,"MEAN_MOTION_DOT":1.655e-5,"MEAN_MOTION_DDOT":0},{"OBJECT_NAME":"KUIPER-00144","OBJECT_ID":"2025-301A","EPOCH":"2026-03-05T02:32:32.676000","MEAN_MOTION":15.38210359,"ECCENTRICITY":0.0007697,"INCLINATION":51.8681,"RA_OF_ASC_NODE":87.2556,"ARG_OF_PERICENTER":18.4872,"MEAN_ANOMALY":341.6393,"EPHEMERIS_TYPE":0,"CLASSIFICATION_TYPE":"U","NORAD_CAT_ID":67133,"ELEMENT_SET_NO":999,"REV_AT_EPOCH":1303,"BSTAR":0.0012777,"MEAN_MOTION_DOT":0.00048809,"MEAN_MOTION_DDOT":0},{"OBJECT_NAME":"KUIPER-00164","OBJECT_ID":"2025-301B","EPOCH":"2026-03-04T18:43:29.417376","MEAN_MOTION":15.18407926,"ECCENTRICITY":0.0004157,"INCLINATION":51.8782,"RA_OF_ASC_NODE":90.2178,"ARG_OF_PERICENTER":45.3966,"MEAN_ANOMALY":314.7351,"EPHEMERIS_TYPE":0,"CLASSIFICATION_TYPE":"U","NORAD_CAT_ID":67134,"ELEMENT_SET_NO":999,"REV_AT_EPOCH":1314,"BSTAR":-0.0023756,"MEAN_MOTION_DOT":-0.00049507,"MEAN_MOTION_DDOT":0},{"OBJECT_NAME":"KUIPER-00175","OBJECT_ID":"2025-301C","EPOCH":"2026-03-05T02:00:21.585024","MEAN_MOTION":15.30790721,"ECCENTRICITY":0.0002122,"INCLINATION":51.876,"RA_OF_ASC_NODE":87.1413,"ARG_OF_PERICENTER":42.6738,"MEAN_ANOMALY":317.4411,"EPHEMERIS_TYPE":0,"CLASSIFICATION_TYPE":"U","NORAD_CAT_ID":67135,"ELEMENT_SET_NO":999,"REV_AT_EPOCH":1310,"BSTAR":0.0010605,"MEAN_MOTION_DOT":0.00031794,"MEAN_MOTION_DDOT":0},{"OBJECT_NAME":"KUIPER-00179","OBJECT_ID":"2025-301D","EPOCH":"2026-03-05T04:00:01.999584","MEAN_MOTION":15.16103406,"ECCENTRICITY":0.0001348,"INCLINATION":51.881,"RA_OF_ASC_NODE":87.8153,"ARG_OF_PERICENTER":73.0486,"MEAN_ANOMALY":224.339,"EPHEMERIS_TYPE":0,"CLASSIFICATION_TYPE":"U","NORAD_CAT_ID":67136,"ELEMENT_SET_NO":999,"REV_AT_EPOCH":564,"BSTAR":-0.13685,"MEAN_MOTION_DOT":-0.02401884,"MEAN_MOTION_DDOT":0},{"OBJECT_NAME":"KUIPER-00181","OBJECT_ID":"2025-301E","EPOCH":"2026-03-05T04:00:01.999584","MEAN_MOTION":14.76413504,"ECCENTRICITY":0.0001938,"INCLINATION":51.9011,"RA_OF_ASC_NODE":96.9892,"ARG_OF_PERICENTER":89.0785,"MEAN_ANOMALY":188.6181,"EPHEMERIS_TYPE":0,"CLASSIFICATION_TYPE":"U","NORAD_CAT_ID":67137,"ELEMENT_SET_NO":999,"REV_AT_EPOCH":530,"BSTAR":-0.0022127,"MEAN_MOTION_DOT":-0.00015701,"MEAN_MOTION_DDOT":0},{"OBJECT_NAME":"KUIPER-00183","OBJECT_ID":"2025-301F","EPOCH":"2026-03-05T04:00:01.999584","MEAN_MOTION":15.3134111,"ECCENTRICITY":0.001509,"INCLINATION":51.8657,"RA_OF_ASC_NODE":87.7423,"ARG_OF_PERICENTER":36.9625,"MEAN_ANOMALY":234.2205,"EPHEMERIS_TYPE":0,"CLASSIFICATION_TYPE":"U","NORAD_CAT_ID":67138,"ELEMENT_SET_NO":999,"REV_AT_EPOCH":584,"BSTAR":-6.2826e-6,"MEAN_MOTION_DOT":-5.69e-6,"MEAN_MOTION_DDOT":0},{"OBJECT_NAME":"KUIPER-00184","OBJECT_ID":"2025-301G","EPOCH":"2026-03-05T02:11:09.392352","MEAN_MOTION":15.37155224,"ECCENTRICITY":0.00122,"INCLINATION":51.8617,"RA_OF_ASC_NODE":87.8415,"ARG_OF_PERICENTER":35.7261,"MEAN_ANOMALY":324.4539,"EPHEMERIS_TYPE":0,"CLASSIFICATION_TYPE":"U","NORAD_CAT_ID":67139,"ELEMENT_SET_NO":999,"REV_AT_EPOCH":1330,"BSTAR":0.0011972,"MEAN_MOTION_DOT":0.00044197,"MEAN_MOTION_DDOT":0},{"OBJECT_NAME":"KUIPER-00186","OBJECT_ID":"2025-301H","EPOCH":"2026-03-05T02:54:19.749024","MEAN_MOTION":14.79949779,"ECCENTRICITY":5.71e-5,"INCLINATION":51.8989,"RA_OF_ASC_NODE":98.3136,"ARG_OF_PERICENTER":39.8357,"MEAN_ANOMALY":320.2647,"EPHEMERIS_TYPE":0,"CLASSIFICATION_TYPE":"U","NORAD_CAT_ID":67140,"ELEMENT_SET_NO":999,"REV_AT_EPOCH":1288,"BSTAR":0.0014631,"MEAN_MOTION_DOT":0.00010955,"MEAN_MOTION_DDOT":0},{"OBJECT_NAME":"KUIPER-00187","OBJECT_ID":"2025-301J","EPOCH":"2026-03-05T02:50:16.349856","MEAN_MOTION":14.79969757,"ECCENTRICITY":0.0001553,"INCLINATION":51.8997,"RA_OF_ASC_NODE":100.8358,"ARG_OF_PERICENTER":117.9423,"MEAN_ANOMALY":242.1697,"EPHEMERIS_TYPE":0,"CLASSIFICATION_TYPE":"U","NORAD_CAT_ID":67141,"ELEMENT_SET_NO":999,"REV_AT_EPOCH":1284,"BSTAR":-4.2081e-5,"MEAN_MOTION_DOT":-5.43e-6,"MEAN_MOTION_DDOT":0},{"OBJECT_NAME":"KUIPER-00188","OBJECT_ID":"2025-301K","EPOCH":"2026-03-04T11:29:20.289984","MEAN_MOTION":15.37830369,"ECCENTRICITY":0.00100964,"INCLINATION":51.8695,"RA_OF_ASC_NODE":90.5443,"ARG_OF_PERICENTER":24.5585,"MEAN_ANOMALY":335.5881,"EPHEMERIS_TYPE":0,"CLASSIFICATION_TYPE":"U","NORAD_CAT_ID":67142,"ELEMENT_SET_NO":999,"REV_AT_EPOCH":1293,"BSTAR":0.0013457381,"MEAN_MOTION_DOT":0.00050843,"MEAN_MOTION_DDOT":0},{"OBJECT_NAME":"KUIPER-00191","OBJECT_ID":"2025-301L","EPOCH":"2026-03-05T04:00:01.999584","MEAN_MOTION":14.83806451,"ECCENTRICITY":0.0007259,"INCLINATION":51.9004,"RA_OF_ASC_NODE":93.2366,"ARG_OF_PERICENTER":52.2164,"MEAN_ANOMALY":293.5668,"EPHEMERIS_TYPE":0,"CLASSIFICATION_TYPE":"U","NORAD_CAT_ID":67143,"ELEMENT_SET_NO":999,"REV_AT_EPOCH":487,"BSTAR":-0.003969,"MEAN_MOTION_DOT":-0.0003329,"MEAN_MOTION_DDOT":0},{"OBJECT_NAME":"KUIPER-00196","OBJECT_ID":"2025-301M","EPOCH":"2026-03-05T02:01:48.283104","MEAN_MOTION":15.38616136,"ECCENTRICITY":0.0003821,"INCLINATION":51.8703,"RA_OF_ASC_NODE":87.1318,"ARG_OF_PERICENTER":8.3605,"MEAN_ANOMALY":351.7445,"EPHEMERIS_TYPE":0,"CLASSIFICATION_TYPE":"U","NORAD_CAT_ID":67144,"ELEMENT_SET_NO":999,"REV_AT_EPOCH":1303,"BSTAR":0.0011727,"MEAN_MOTION_DOT":0.00045314,"MEAN_MOTION_DDOT":0},{"OBJECT_NAME":"KUIPER-00204","OBJECT_ID":"2025-301N","EPOCH":"2026-03-05T01:48:27.552096","MEAN_MOTION":15.25953473,"ECCENTRICITY":0.0002757,"INCLINATION":51.883,"RA_OF_ASC_NODE":92.1795,"ARG_OF_PERICENTER":342.2772,"MEAN_ANOMALY":17.8113,"EPHEMERIS_TYPE":0,"CLASSIFICATION_TYPE":"U","NORAD_CAT_ID":67145,"ELEMENT_SET_NO":999,"REV_AT_EPOCH":1307,"BSTAR":0.00064841,"MEAN_MOTION_DOT":0.00016577,"MEAN_MOTION_DDOT":0},{"OBJECT_NAME":"KUIPER-00210","OBJECT_ID":"2025-301P","EPOCH":"2026-03-05T04:00:01.999584","MEAN_MOTION":14.84172431,"ECCENTRICITY":0.0011129,"INCLINATION":51.8991,"RA_OF_ASC_NODE":93.2395,"ARG_OF_PERICENTER":56.6246,"MEAN_ANOMALY":89.2241,"EPHEMERIS_TYPE":0,"CLASSIFICATION_TYPE":"U","NORAD_CAT_ID":67146,"ELEMENT_SET_NO":999,"REV_AT_EPOCH":586,"BSTAR":-0.0034525,"MEAN_MOTION_DOT":-0.00029283,"MEAN_MOTION_DDOT":0},{"OBJECT_NAME":"KUIPER-00221","OBJECT_ID":"2025-301Q","EPOCH":"2026-03-05T02:01:39.804672","MEAN_MOTION":14.7998519,"ECCENTRICITY":6.12e-5,"INCLINATION":51.9008,"RA_OF_ASC_NODE":100.9697,"ARG_OF_PERICENTER":107.2753,"MEAN_ANOMALY":252.8276,"EPHEMERIS_TYPE":0,"CLASSIFICATION_TYPE":"U","NORAD_CAT_ID":67147,"ELEMENT_SET_NO":999,"REV_AT_EPOCH":1284,"BSTAR":0.00067593,"MEAN_MOTION_DOT":4.942e-5,"MEAN_MOTION_DDOT":0}]
